{
    "links": {
        "self": "http://www.neowsapp.com/rest/v1/neo/3666232?api_key=iIulBulltgU6a56xZRHN4H3l9WmuAYTsLGpBGhQ2"
    },
    "id": "3666232",
    "neo_reference_id": "3666232",
    "name": "(2014 FG)",
    "designation": "2014 FG",
    "nasa_jpl_url": "http://ssd.jpl.nasa.gov/sbdb.cgi?sstr=3666232",
    "absolute_magnitude_h": 25.2,
    "estimated_diameter": {
        "kilometers": {
            "estimated_diameter_min": 0.0242412481,
            "estimated_diameter_max": 0.0542050786
        },
        "meters": {
            "estimated_diameter_min": 24.2412481101,
            "estimated_diameter_max": 54.2050786336
        },
        "miles": {
            "estimated_diameter_min": 0.0150628086,
            "estimated_diameter_max": 0.0336814639
        },
        "feet": {
            "estimated_diameter_min": 79.5316564495,
            "estimated_diameter_max": 177.8381901842
        }
    },
    "is_potentially_hazardous_asteroid": false,
    "close_approach_data": [
        {
            "close_approach_date": "2014-03-16",
            "close_approach_date_full": "2014-Mar-16 02:27",
            "epoch_date_close_approach": 1394936820000,
            "relative_velocity": {
                "kilometers_per_second": "9.3421513567",
                "kilometers_per_hour": "33631.7448840595",
                "miles_per_hour": "20897.4583697647"
            },
            "miss_distance": {
                "astronomical": "0.0313587655",
                "lunar": "12.1985597795",
                "kilometers": "4691204.524629485",
                "miles": "2914979.322217493"
            },
            "orbiting_body": "Earth"
        }
    ],
    "orbital_data": {
        "orbit_id": "7",
        "orbit_determination_date": "2017-04-06 08:42:00",
        "first_observation_date": "2014-03-20",
        "last_observation_date": "2014-04-05",
        "data_arc_in_days": 16,
        "observations_used": 38,
        "orbit_uncertainty": "8",
        "minimum_orbit_intersection": ".0268057",
        "jupiter_tisserand_invariant": "3.470",
        "epoch_osculation": "2456738.5",
        "eccentricity": ".5374868334193575",
        "semi_major_axis": "2.171024960050873",
        "inclination": "9.852296519633819",
        "ascending_node_longitude": "175.9970958031931",
        "orbital_period": "1168.411039464881",
        "perihelion_distance": "1.004127628998742",
        "perihelion_argument": "340.1231835933391",
        "aphelion_distance": "3.337922291103003",
        "perihelion_time": "2456717.379492776120",
        "mean_anomaly": "6.507455290801656",
        "mean_motion": ".3081107485640293",
        "equinox": "J2000",
        "orbit_class": {
            "orbit_class_type": "APO",
            "orbit_class_description": "Near-Earth asteroid orbits which cross the Earth’s orbit similar to that of 1862 Apollo",
            "orbit_class_range": "a (semi-major axis) > 1.0 AU; q (perihelion) < 1.017 AU"
        }
    },
    "is_sentry_object": false
}